[{"OBJECT_NAME":"NIGERIASAT-2","OBJECT_ID":"2011-044B","EPOCH":"2026-03-09T22:16:13.230624","MEAN_MOTION":14.70414983,"ECCENTRICITY":0.00315152,"INCLINATION":97.8701,"RA_OF_ASC_NODE":49.4656,"ARG_OF_PERICENTER":79.9218,"MEAN_ANOMALY":4.7488,"EPHEMERIS_TYPE":0,"CLASSIFICATION_TYPE":"U","NORAD_CAT_ID":37789,"ELEMENT_SET_NO":999,"REV_AT_EPOCH":77598,"BSTAR":0.00015542996,"MEAN_MOTION_DOT":9.0e-6,"MEAN_MOTION_DDOT":0},{"OBJECT_NAME":"FENGYUN 1C DEB","OBJECT_ID":"1999-025BEQ","EPOCH":"2026-03-09T15:32:20.106816","MEAN_MOTION":14.69067027,"ECCENTRICITY":0.00470979,"INCLINATION":98.9646,"RA_OF_ASC_NODE":201.2861,"ARG_OF_PERICENTER":196.1954,"MEAN_ANOMALY":292.4019,"EPHEMERIS_TYPE":0,"CLASSIFICATION_TYPE":"U","NORAD_CAT_ID":31046,"ELEMENT_SET_NO":999,"REV_AT_EPOCH":97916,"BSTAR":0.0061554572,"MEAN_MOTION_DOT":0.00036885,"MEAN_MOTION_DDOT":0}]
